{
    "links": {
        "self": "http://www.neowsapp.com/rest/v1/neo/3605840?api_key=iIulBulltgU6a56xZRHN4H3l9WmuAYTsLGpBGhQ2"
    },
    "id": "3605840",
    "neo_reference_id": "3605840",
    "name": "(2012 MW1)",
    "designation": "2012 MW1",
    "nasa_jpl_url": "http://ssd.jpl.nasa.gov/sbdb.cgi?sstr=3605840",
    "absolute_magnitude_h": 20.7,
    "estimated_diameter": {
        "kilometers": {
            "estimated_diameter_min": 0.1925550782,
            "estimated_diameter_max": 0.4305662442
        },
        "meters": {
            "estimated_diameter_min": 192.5550781879,
            "estimated_diameter_max": 430.566244241
        },
        "miles": {
            "estimated_diameter_min": 0.1196481415,
            "estimated_diameter_max": 0.2675413778
        },
        "feet": {
            "estimated_diameter_min": 631.7424027221,
            "estimated_diameter_max": 1412.6189567557
        }
    },
    "is_potentially_hazardous_asteroid": false,
    "close_approach_data": [
        {
            "close_approach_date": "2012-06-22",
            "close_approach_date_full": "2012-Jun-22 01:07",
            "epoch_date_close_approach": 1340327220000,
            "relative_velocity": {
                "kilometers_per_second": "22.4772891932",
                "kilometers_per_hour": "80918.2410954214",
                "miles_per_hour": "50279.4481962078"
            },
            "miss_distance": {
                "astronomical": "0.2017123664",
                "lunar": "78.4661105296",
                "kilometers": "30175740.366099568",
                "miles": "18750335.5988793184"
            },
            "orbiting_body": "Earth"
        }
    ],
    "orbital_data": {
        "orbit_id": "13",
        "orbit_determination_date": "2017-04-06 08:49:32",
        "first_observation_date": "2012-06-17",
        "last_observation_date": "2012-07-17",
        "data_arc_in_days": 30,
        "observations_used": 57,
        "orbit_uncertainty": "7",
        "minimum_orbit_intersection": ".119721",
        "jupiter_tisserand_invariant": "3.956",
        "epoch_osculation": "2459000.5",
        "eccentricity": ".3965593034179646",
        "semi_major_axis": "1.669675041801586",
        "inclination": "36.17370391358579",
        "ascending_node_longitude": "89.23132311744739",
        "orbital_period": "788.0365481323201",
        "perihelion_distance": "1.007549870290388",
        "perihelion_argument": "124.7534943987477",
        "aphelion_distance": "2.331800213312784",
        "perihelion_time": "2459209.154945357538",
        "mean_anomaly": "264.6798267076049",
        "mean_motion": ".4568316036270338",
        "equinox": "J2000",
        "orbit_class": {
            "orbit_class_type": "APO",
            "orbit_class_description": "Near-Earth asteroid orbits which cross the Earth’s orbit similar to that of 1862 Apollo",
            "orbit_class_range": "a (semi-major axis) > 1.0 AU; q (perihelion) < 1.017 AU"
        }
    },
    "is_sentry_object": false
}